0 CZ-4B DEB
1 27433U 02024D   13282.51328130  .00000178  00000-0  12267-3 0  6585
2 27433 098.7931 247.8662 0013597 258.4792 239.2432 14.11288907587157
0 CZ-4B DEB
1 27433U 02024D   13283.57571236  .00000146  00000-0  10506-3 0  6599
2 27433 098.7932 248.9070 0013591 255.2329 237.3053 14.11289517587301
0 CZ-4B DEB
1 27433U 02024D   13286.11268855  .00000304  00000-0  19237-3 0  6611
2 27433 098.7936 251.3918 0013606 247.4616 167.3646 14.11289413587667
0 CZ-4B DEB
1 27433U 02024D   13287.54140944  .00000410  00000-0  25073-3 0  6621
2 27433 098.7939 252.7911 0013629 243.1025 226.5016 14.11289567587861
0 CZ-4B DEB
1 27433U 02024D   13288.80766955  .00000484  00000-0  29164-3 0  6634
2 27433 098.7943 254.0313 0013702 239.3249 180.1127 14.11291051588044
0 CZ-4B DEB
1 27433U 02024D   13289.86971936  .00000413  00000-0  25260-3 0  6644
2 27433 098.7946 255.0715 0013756 236.1588 176.1705 14.11292966588193
0 CZ-4B DEB
1 27433U 02024D   13291.00192831  .00000307  00000-0  19358-3 0  6656
2 27433 098.7949 256.1805 0013762 232.6172 168.8632 14.11294704588352
0 CZ-4B DEB
1 27433U 02024D   13292.84827228  .00000255  00000-0  16525-3 0  6660
2 27433 098.7952 257.9893 0013812 227.0585 189.8380 14.11296629588614
0 CZ-4B DEB
1 27433U 02024D   13294.12428385  .00000292  00000-0  18578-3 0  6676
2 27433 098.7953 259.2394 0013857 223.2264 193.0484 14.11297386588799
0 CZ-4B DEB
1 27433U 02024D   13295.48930096  .00000433  00000-0  26344-3 0  6681
2 27433 098.7954 260.5768 0013923 219.2389 288.3768 14.11297603588983
